NORAD_CAT_ID,OBJECT_NAME,OBJECT_TYPE,EPOCH,MEAN_MOTION,ECCENTRICITY,INCLINATION,RA_OF_ASC_NODE,ARG_OF_PERICENTER,MEAN_ANOMALY,BSTAR,MEAN_MOTION_DOT,MEAN_MOTION_DDOT,TLE_LINE0,TLE_LINE1,TLE_LINE2,SEMIMAJOR_AXIS,PERIOD,APOGEE,PERIGEE,DECAYED
53907.0,STARLINK-5063,PAYLOAD,2024-08-11 11:31:08,15.08837362,0.0001697,53.2191,26.5946,104.3314,255.7867,0.00057798,8.922e-05,0.0,0 STARLINK-5063,1 53907U 22119X   24224.47995802  .00008922  00000-0  57798-3 0  9997,2 53907  53.2191  26.5946 0001697 104.3314 255.7867 15.08837362104422,6917.888,95.438,540.927,538.579,0.0
53907.0,STARLINK-5063,PAYLOAD,2024-08-11 17:52:40,15.08862942,0.0002756,53.2187,25.4031,95.9642,264.1664,0.0010749,0.00016872,0.0,0 STARLINK-5063,1 53907U 22119X   24224.74491446  .00016872  00000-0  10749-2 0  9999,2 53907  53.2187  25.4031 0002756  95.9642 264.1664 15.08862942104461,6917.81,95.436,541.582,537.769,0.0
53907.0,STARLINK-5063,PAYLOAD,2024-08-12 03:24:58,15.08863284,7.45e-05,53.2182,23.6163,331.0332,29.0619,0.001222,0.00019226,0.0,0 STARLINK-5063,1 53907U 22119X   24225.14234855  .00019226  00000-0  12220-2 0  9995,2 53907  53.2182  23.6163 0000745 331.0332  29.0619 15.08863284104523,6917.809,95.436,540.19,539.159,0.0
53907.0,STARLINK-5063,PAYLOAD,2024-08-12 11:21:55,15.08847606,0.0001369,53.2182,22.1326,102.5203,257.5942,0.00038936,5.915e-05,0.0,0 STARLINK-5063,1 53907U 22119X   24225.47355334  .00005915  00000-0  38936-3 0  9990,2 53907  53.2182  22.1326 0001369 102.5203 257.5942 15.08847606104571,6917.857,95.437,540.669,538.775,0.0
53907.0,STARLINK-5063,PAYLOAD,2024-08-12 17:43:26,15.08888301,5.31e-05,53.2179,20.9407,76.9519,283.1532,0.0016762,0.00026525,0.0,0 STARLINK-5063,1 53907U 22119X   24225.73850146  .00026525  00000-0  16762-2 0  9992,2 53907  53.2179  20.9407 0000531  76.9519 283.1532 15.08888301104619,6917.733,95.434,539.965,539.23,0.0
53907.0,STARLINK-5063,PAYLOAD,2024-08-13 03:15:44,15.08883386,4.88e-05,53.2173,19.1575,335.3579,24.7389,0.0010042,0.00015749,0.0,0 STARLINK-5063,1 53907U 22119X   24226.13593191  .00015749  00000-0  10042-2 0  9992,2 53907  53.2173  19.1575 0000488 335.3579  24.7389 15.08883386104671,6917.748,95.435,539.95,539.275,0.0
53907.0,STARLINK-5063,PAYLOAD,2024-08-13 09:37:18,15.0882986,0.0001962,53.2204,17.9707,89.5884,270.5333,-0.0008233,-0.00013364,0.0,0 STARLINK-5063,1 53907U 22119X   24226.40090439 -.00013364  00000-0 -82330-3 0  9992,2 53907  53.2204  17.9707 0001962  89.5884 270.5333 15.08829860104716,6917.911,95.438,541.134,538.419,0.0
53907.0,STARLINK-5063,PAYLOAD,2024-08-13 19:09:37,15.08820603,0.0001574,53.2085,16.1805,62.398,297.7172,-0.00054264,-8.909e-05,0.0,0 STARLINK-5063,1 53907U 22119X   24226.79834893 -.00008909  00000-0 -54264-3 0  9998,2 53907  53.2085  16.1805 0001574  62.3980 297.7172 15.08820603105199,6917.94,95.439,540.894,538.716,0.0
53907.0,STARLINK-5063,PAYLOAD,2024-08-14 09:28:06,15.08822751,0.0001373,53.2166,13.509,72.2169,287.8973,0.0006529,0.00010113,0.0,0 STARLINK-5063,1 53907U 22119X   24227.39451938  .00010113  00000-0  65290-3 0  9999,2 53907  53.2166  13.5090 0001373  72.2169 287.8973 15.08822751104860,6917.933,95.439,540.748,538.848,0.0
53907.0,STARLINK-5063,PAYLOAD,2024-08-14 14:14:16,15.08825576,0.0001299,53.2173,12.6176,71.2375,288.8758,0.00057457,8.865e-05,0.0,0 STARLINK-5063,1 53907U 22119X   24227.59324093  .00008865  00000-0  57457-3 0  9999,2 53907  53.2173  12.6176 0001299  71.2375 288.8758 15.08825576105319,6917.924,95.438,540.688,538.891,0.0
53907.0,STARLINK-5063,PAYLOAD,2024-08-14 17:25:02,15.08832431,0.0001255,53.2171,12.0229,69.9691,290.1436,0.00074697,0.00011618,0.0,0 STARLINK-5063,1 53907U 22119X   24227.72572090  .00011618  00000-0  74697-3 0  9991,2 53907  53.2171  12.0229 0001255  69.9691 290.1436 15.08832431105336,6917.904,95.438,540.637,538.9,0.0
53907.0,STARLINK-5063,PAYLOAD,2024-08-15 15:40:25,15.08858161,0.0001302,53.2172,7.8597,66.9215,293.1914,0.00076643,0.00011937,0.0,0 STARLINK-5063,1 53907U 22119X   24228.65307572  .00011937  00000-0  76643-3 0  9992,2 53907  53.2172   7.8597 0001302  66.9215 293.1914 15.08858161105476,6917.825,95.436,540.591,538.789,0.0
53907.0,STARLINK-5063,PAYLOAD,2024-08-16 02:48:07,15.08853485,0.0001298,53.2176,5.7783,65.3346,294.7782,0.00036539,5.534e-05,0.0,0 STARLINK-5063,1 53907U 22119X   24229.11675343  .00005534  00000-0  36539-3 0  9994,2 53907  53.2176   5.7783 0001298  65.3346 294.7782 15.08853485105122,6917.839,95.437,540.602,538.806,0.0
53907.0,STARLINK-5063,PAYLOAD,2024-08-17 18:32:48,15.08840173,0.0003793,53.2173,358.3427,89.5716,270.5711,0.00054691,8.427e-05,0.0,0 STARLINK-5063,1 53907U 22119X   24230.77277801  .00008427  00000-0  54691-3 0  9998,2 53907  53.2173 358.3427 0003793  89.5716 270.5711 15.08840173105373,6917.88,95.438,542.369,537.121,0.0
53907.0,STARLINK-5063,PAYLOAD,2024-08-18 15:12:46,15.08823613,0.0001331,53.2191,354.4781,105.0849,255.029,0.0011007,0.00017265,0.0,0 STARLINK-5063,1 53907U 22119X   24231.63387624  .00017265  00000-0  11007-2 0  9992,2 53907  53.2191 354.4781 0001331 105.0849 255.0290 15.08823613105921,6917.93,95.439,540.716,538.875,0.0
53907.0,STARLINK-5063,PAYLOAD,2024-08-19 08:42:02,15.08840204,0.0001456,53.2189,351.2023,111.1265,248.9883,9.4281e-06,-1.38e-06,0.0,0 STARLINK-5063,1 53907U 22119X   24232.36252674 -.00000138  00000-0  94281-5 0  9999,2 53907  53.2189 351.2023 0001456 111.1265 248.9883 15.08840204105610,6917.88,95.438,540.752,538.738,0.0
53907.0,STARLINK-5063,PAYLOAD,2024-08-19 16:38:58,15.08832895,0.0001302,53.218,349.7177,128.0193,232.0917,-8.5817e-05,-1.653e-05,0.0,0 STARLINK-5063,1 53907U 22119X   24232.69372986 -.00001653  00000-0 -85817-4 0  9992,2 53907  53.2180 349.7177 0001302 128.0193 232.0917 15.08832895105664,6917.902,95.438,540.668,538.866,0.0
53907.0,STARLINK-5063,PAYLOAD,2024-08-20 11:43:35,15.08846721,7.05e-05,53.219,346.1494,128.0657,232.0399,4.4264e-05,4.17e-06,0.0,0 STARLINK-5063,1 53907U 22119X   24233.48860321  .00000417  00000-0  44264-4 0  9991,2 53907  53.2190 346.1494 0000705 128.0657 232.0399 15.08846721105789,6917.86,95.437,540.213,539.237,0.0
53907.0,STARLINK-5063,PAYLOAD,2024-08-20 14:54:21,15.08860152,0.0001277,53.2187,345.5551,95.8747,264.239,0.00042358,6.463e-05,0.0,0 STARLINK-5063,1 53907U 22119X   24233.62108013  .00006463  00000-0  42358-3 0  9998,2 53907  53.2187 345.5551 0001277  95.8747 264.2390 15.08860152106220,6917.819,95.436,540.567,538.8,0.0
53907.0,STARLINK-5063,PAYLOAD,2024-08-20 18:05:07,15.08864981,0.0001312,53.2189,344.9588,93.901,266.2132,0.00076739,0.00011954,0.0,0 STARLINK-5063,1 53907U 22119X   24233.75356017  .00011954  00000-0  76739-3 0  9992,2 53907  53.2189 344.9588 0001312  93.9010 266.2132 15.08864981105822,6917.804,95.436,540.577,538.761,0.0
53907.0,STARLINK-5063,PAYLOAD,2024-08-21 11:34:22,15.08850849,0.0002484,53.2181,341.6824,135.1277,224.9916,0.00010972,1.459e-05,0.0,0 STARLINK-5063,1 53907U 22119X   24234.48220239  .00001459  00000-0  10972-3 0  9995,2 53907  53.2181 341.6824 0002484 135.1277 224.9916 15.08850849105937,6917.847,95.437,541.431,537.994,0.0
53907.0,STARLINK-5063,PAYLOAD,2024-08-21 14:45:08,15.08848604,0.0001491,53.2187,341.0826,102.0054,258.1105,6.1069e-05,6.84e-06,0.0,0 STARLINK-5063,1 53907U 22119X   24234.61468406  .00000684  00000-0  61069-4 0  9993,2 53907  53.2187 341.0826 0001491 102.0054 258.1105 15.08848604106376,6917.854,95.437,540.751,538.688,0.0
